BEIDOU 3 (C01)          
1 36287U 10001A   21267.85350096 -.00000286  00000-0  00000-0 0  9999
2 36287   1.6518  40.2304 0003368  76.0034 335.3357  1.00268380 42858
BEIDOU 5 (C06)          
1 36828U 10036A   21267.90327047 -.00000126  00000-0  00000+0 0  9996
2 36828  54.1831 178.6757 0023257 181.8428  75.8811  1.00274789 40915
BEIDOU 6 (C04)          
1 37210U 10057A   21267.78560587 -.00000118  00000-0  00000+0 0  9990
2 37210   1.0113  56.3096 0006915 135.9468 254.2906  1.00269851 39975
BEIDOU 7 (C07)          
1 37256U 10068A   21267.99098609 -.00000184  00000-0  00000+0 0  9999
2 37256  50.7074 292.8066 0018289 190.2705 346.6279  1.00278584 39489
BEIDOU 8 (C08)          
1 37384U 11013A   21268.26697749 -.00000162  00000-0  00000+0 0  9999
2 37384  59.9172  56.8970 0018617 179.6547 330.0907  1.00279320 38363
BEIDOU 9 (C09)          
1 37763U 11038A   21267.90695103 -.00000077  00000-0  00000-0 0  9995
2 37763  54.4716 181.1364 0086647 226.9184  15.9278  1.00289381 37332
BEIDOU 10 (C10)         
1 37948U 11073A   21267.51122301 -.00000139  00000-0  00000-0 0  9990
2 37948  50.7934 292.4505 0079048 217.2510 134.1283  1.00270830 36084
BEIDOU 11 (C05)         
1 38091U 12008A   21267.93912127  .00000053  00000-0  00000-0 0  9992
2 38091   1.7649  70.0407 0003152 333.8541 356.8942  1.00269185 35160
BEIDOU 12 (C11)         
1 38250U 12018A   21267.76204126 -.00000110  00000-0  00000+0 0  9998
2 38250  56.7469   2.3367 0022848 244.5035  31.6538  1.86234315 64138
BEIDOU 13 (C12)         
1 38251U 12018B   21267.69291808 -.00000110  00000-0  00000+0 0  9994
2 38251  56.6687   1.6810 0013756 243.7044  30.4532  1.86234058 64139
BEIDOU 15 (C14)         
1 38775U 12050B   21267.42822272  .00000006  00000-0  00000+0 0  9990
2 38775  55.2532 120.6466 0012822 328.2759 325.6924  1.86231305 61502
BEIDOU 16 (C02)         
1 38953U 12059A   21268.05761679 -.00000180  00000-0  00000+0 0  9994
2 38953   1.3336  84.0801 0009485 290.0497  94.7273  1.00275436 32740
BEIDOU 17 (C31)         
1 40549U 15019A   21267.61785370 -.00000146  00000-0  00000-0 0  9995
2 40549  52.3317 315.8427 0038200 188.9390 172.7758  1.00299101 23775
BEIDOU 18 (C57)         
1 40748U 15037A   21267.28727155 -.00000112  00000-0  00000+0 0  9998
2 40748  55.9273   0.7230 0001403  41.5400 230.4344  1.86233339 41957
BEIDOU 19 (C58)         
1 40749U 15037B   21267.62900478 -.00000111  00000-0  00000+0 0  9997
2 40749  55.9304   0.6990 0002781 295.4061 341.3459  1.86232088 41957
BEIDOU 20 (C18)         
1 40938U 15053A   21267.38942104 -.00000111  00000-0  00000-0 0  9991
2 40938  51.9142 278.9267 0048384 195.9169 123.8579  1.00261403 22035
BEIDOU IGSO-6 (C13)     
1 41434U 16021A   21267.74465647 -.00000133  00000-0  00000-0 0  9995
2 41434  57.7133  55.6035 0043313 210.2953  99.2057  1.00292954 20167
BEIDOU-2 G7 (C03)       
1 41586U 16037A   21267.85677010 -.00000358  00000-0  00000+0 0  9999
2 41586   1.9102  69.0271 0007705  14.3865 339.4960  1.00273076 19471
BEIDOU-3 M1 (C19)       
1 43001U 17069A   21267.23514337  .00000007  00000-0  00000+0 0  9993
2 43001  55.4068 120.6173 0008183 295.2008  25.3360  1.86231862 26435
BEIDOU-3 M2 (C20)       
1 43002U 17069B   21267.50726583  .00000005  00000-0  00000-0 0  9991
2 43002  55.4060 120.6437 0007248 322.1235 224.1843  1.86231444 26435
BEIDOU-3 M3 (C27)       
1 43107U 18003A   21267.47306679 -.00000113  00000-0  00000+0 0  9992
2 43107  55.3721   1.7517 0004094  64.6555 264.6398  1.86232497 25196
BEIDOU-3 M4 (C28)       
1 43108U 18003B   21267.53391163 -.00000113  00000-0  00000+0 0  9992
2 43108  55.3661   1.7385 0003607 227.5159 187.7510  1.86232468 25203
BEIDOU-3 M5 (C21)       
1 43207U 18018A   21266.82485024  .00000010  00000-0  00000-0 0  9995
2 43207  55.3652 120.7544 0005503 353.8017   6.2832  1.86231761 24571
BEIDOU-3 M6 (C22)       
1 43208U 18018B   21266.89158136  .00000009  00000-0  00000-0 0  9992
2 43208  55.3651 120.7573 0006415 310.8403  49.1964  1.86231672 24571
BEIDOU-3 M7 (C29)       
1 43245U 18029A   21267.49227428 -.00000112  00000-0  00000-0 0  9999
2 43245  55.2982 359.5362 0000961 171.8697  80.5585  1.86232536 23731
BEIDOU-3 M8 (C30)       
1 43246U 18029B   21267.49637696 -.00000112  00000-0  10000-3 0  9996
2 43246  55.2953 359.5667 0002847 348.5061 312.9611  1.86233031 23723
BEIDOU IGSO-7 (C16)     
1 43539U 18057A   21267.90357141 -.00000131  00000-0  00000-0 0  9999
2 43539  55.0637 178.0670 0041313 224.2285  38.6892  1.00291547 11847
BEIDOU-3 M9 (C23)       
1 43581U 18062A   21267.28602414  .00000013  00000-0  00000+0 0  9996
2 43581  54.3666 241.2049 0006249 273.3894  97.3436  1.86231808 21475
BEIDOU-3 M10 (C24)      
1 43582U 18062B   21267.22918971  .00000012  00000-0  00000-0 0  9999
2 43582  54.3667 241.1968 0005527 330.9514  93.1198  1.86232194 21471
BEIDOU-3 M11 (C25)      
1 43602U 18067A   21267.36960296  .00000014  00000-0  00000+0 0  9990
2 43602  54.4445 239.7831 0006960 351.7959 208.4397  1.86231523 20967
BEIDOU-3 M12 (C26)      
1 43603U 18067B   21267.46471245  .00000015  00000-0  00000+0 0  9994
2 43603  54.4411 239.7475 0004510 334.2397 200.2018  1.86231458 20985
BEIDOU-3 M13 (C32)      
1 43622U 18072A   21267.42417389  .00000006  00000-0  00000+0 0  9996
2 43622  55.3311 120.2990 0004979 293.1656 244.1038  1.86231938 20499
BEIDOU-3 M14 (C33)      
1 43623U 18072B   21267.82585280  .00000004  00000-0  00000+0 0  9995
2 43623  55.3336 120.2764 0003615 332.8370 203.9713  1.86231945 20509
BEIDOU-3 M15 (C34)      
1 43647U 18078A   21267.55860236 -.00000113  00000-0  10000-3 0  9991
2 43647  55.1928 359.7149 0005147 358.2893 254.5556  1.86232720 20004
BEIDOU-3 M16 (C35)      
1 43648U 18078B   21267.15220503 -.00000113  00000-0  00000-0 0  9991
2 43648  55.1886 359.7363 0003219  17.4646 231.1969  1.86232331 20012
BEIDOU-3 G1 (C59)       
1 43683U 18085A   21267.85341374 -.00000283  00000-0  00000-0 0  9993
2 43683   0.9252 213.7910 0004635  25.3460 212.0432  1.00272693 10741
BEIDOU-3 M17 (C36)      
1 43706U 18093A   21268.00821441  .00000021  00000-0  00000+0 0  9992
2 43706  54.4478 241.0465 0011370 273.0421  86.7983  1.86232045 19379
BEIDOU-3 M18 (C37)      
1 43707U 18093B   21267.70356778  .00000018  00000-0  00000+0 0  9991
2 43707  54.4491 241.0477 0010059 292.0100 314.5261  1.86232118 19378
BEIDOU-3 IGSO-1 (C38)   
1 44204U 19023A   21267.67301294 -.00000201  00000-0  00000+0 0  9992
2 44204  56.1677  55.8411 0022569 184.8303 123.1152  1.00291272  9045
BEIDOU-2 G8             
1 44231U 19027A   21267.85428593 -.00000252  00000-0  00000-0 0  9995
2 44231   0.3028  35.5692 0007142 161.7753 258.6613  1.00271662  8760
BEIDOU-3 IGSO-2 (C39)   
1 44337U 19035A   21267.97093104 -.00000134  00000-0  00000+0 0  9998
2 44337  55.0985 174.0996 0020232 182.4069 116.2860  1.00282284  8380
BEIDOU-3 M23 (C45)      
1 44542U 19061A   21267.77113458  .00000019  00000-0  10000-3 0  9994
2 44542  54.6728 241.1435 0009259 319.1675 285.3787  1.86231430 13631
BEIDOU-3 M24 (C46)      
1 44543U 19061B   21266.77675383  .00000008  00000-0  10000-3 0  9992
2 44543  54.6716 241.1473 0007008 305.6888 263.1518  1.86231739 13613
BEIDOU-3 IGSO-3         
1 44709U 19073A   21267.99273045 -.00000161  00000-0  00000+0 0  9999
2 44709  57.6873 299.1358 0020491 184.6193 356.9979  1.00287104  7140
BEIDOU-3 M21            
1 44793U 19078A   21266.28171560 -.00000114  00000-0  10000-3 0  9990
2 44793  55.0417 359.8118 0005078   7.3131  63.7435  1.86232210 12478
BEIDOU-3 M22            
1 44794U 19078B   21267.22084470 -.00000113  00000-0  00000-0 0  9994
2 44794  55.0159 359.7778 0003214   2.7349 249.1320  1.86232755 12481
BEIDOU-3 M19            
1 44864U 19090A   21267.35736480  .00000006  00000-0  00000-0 0  9995
2 44864  55.2667 120.5268 0014665 267.0249 270.9749  1.86232016 12072
BEIDOU-3 M20            
1 44865U 19090B   21267.97229839  .00000003  00000-0  00000+0 0  9995
2 44865  55.2689 120.5367 0013188 283.4617  36.7279  1.86231956 12053
BEIDOU-3 G2             
1 45344U 20017A   21268.12861234 -.00000145  00000-0  00000+0 0  9996
2 45344   2.3083 339.6560 0003797 161.4935 349.3393  1.00270889  5964
BEIDOU-3 G3             
1 45807U 20040A   21268.06284988 -.00000360  00000-0  00000+0 0  9993
2 45807   2.0567 299.0721 0009927 336.2512 221.9421  1.00275600  4775
